[{"OBJECT_NAME":"ONEWEB-0275","OBJECT_ID":"2021-060AC","EPOCH":"2026-04-10T10:33:48.197088","MEAN_MOTION":13.16593578,"ECCENTRICITY":0.0001901,"INCLINATION":87.9054,"RA_OF_ASC_NODE":242.235,"ARG_OF_PERICENTER":100.4201,"MEAN_ANOMALY":259.7145,"EPHEMERIS_TYPE":0,"CLASSIFICATION_TYPE":"U","NORAD_CAT_ID":48993,"ELEMENT_SET_NO":999,"REV_AT_EPOCH":23064,"BSTAR":1.4046e-06,"MEAN_MOTION_DOT":1.3e-07,"MEAN_MOTION_DDOT":0.0},{"OBJECT_NAME":"ONEWEB-0276","OBJECT_ID":"2021-060AD","EPOCH":"2026-04-10T09:32:13.936992","MEAN_MOTION":13.16592531,"ECCENTRICITY":0.0001876,"INCLINATION":87.9057,"RA_OF_ASC_NODE":242.2444,"ARG_OF_PERICENTER":105.5217,"MEAN_ANOMALY":254.6121,"EPHEMERIS_TYPE":0,"CLASSIFICATION_TYPE":"U","NORAD_CAT_ID":48994,"ELEMENT_SET_NO":999,"REV_AT_EPOCH":23065,"BSTAR":0.00019393,"MEAN_MOTION_DOT":8.7e-07,"MEAN_MOTION_DDOT":0.0},{"OBJECT_NAME":"ONEWEB-0277","OBJECT_ID":"2021-060AE","EPOCH":"2026-04-10T09:50:29.087232","MEAN_MOTION":13.16593678,"ECCENTRICITY":0.0001929,"INCLINATION":87.9046,"RA_OF_ASC_NODE":242.2539,"ARG_OF_PERICENTER":97.4933,"MEAN_ANOMALY":262.6417,"EPHEMERIS_TYPE":0,"CLASSIFICATION_TYPE":"U","NORAD_CAT_ID":48995,"ELEMENT_SET_NO":999,"REV_AT_EPOCH":23064,"BSTAR":4.4244000000000005e-05,"MEAN_MOTION_DOT":3e-07,"MEAN_MOTION_DDOT":0.0},{"OBJECT_NAME":"ONEWEB-0278","OBJECT_ID":"2021-060AF","EPOCH":"2026-04-10T07:47:21.365376","MEAN_MOTION":13.16593165,"ECCENTRICITY":0.0001578,"INCLINATION":87.9055,"RA_OF_ASC_NODE":242.2563,"ARG_OF_PERICENTER":97.9793,"MEAN_ANOMALY":262.1517,"EPHEMERIS_TYPE":0,"CLASSIFICATION_TYPE":"U","NORAD_CAT_ID":48996,"ELEMENT_SET_NO":999,"REV_AT_EPOCH":23076,"BSTAR":8.1847e-05,"MEAN_MOTION_DOT":4.4e-07,"MEAN_MOTION_DDOT":0.0},{"OBJECT_NAME":"ONEWEB-0279","OBJECT_ID":"2021-060AG","EPOCH":"2026-04-10T07:58:46.545888","MEAN_MOTION":13.16594322,"ECCENTRICITY":0.0002071,"INCLINATION":87.9056,"RA_OF_ASC_NODE":242.2536,"ARG_OF_PERICENTER":100.8999,"MEAN_ANOMALY":259.2365,"EPHEMERIS_TYPE":0,"CLASSIFICATION_TYPE":"U","NORAD_CAT_ID":48997,"ELEMENT_SET_NO":999,"REV_AT_EPOCH":23069,"BSTAR":-1.2948000000000002e-05,"MEAN_MOTION_DOT":8e-08,"MEAN_MOTION_DDOT":0.0},{"OBJECT_NAME":"ONEWEB-0280","OBJECT_ID":"2021-060AH","EPOCH":"2026-04-10T08:20:24.266112","MEAN_MOTION":13.16594377,"ECCENTRICITY":0.00018,"INCLINATION":87.9055,"RA_OF_ASC_NODE":242.255,"ARG_OF_PERICENTER":88.7599,"MEAN_ANOMALY":271.3738,"EPHEMERIS_TYPE":0,"CLASSIFICATION_TYPE":"U","NORAD_CAT_ID":48998,"ELEMENT_SET_NO":999,"REV_AT_EPOCH":23063,"BSTAR":-0.00074087,"MEAN_MOTION_DOT":-2.7e-06,"MEAN_MOTION_DDOT":0.0},{"OBJECT_NAME":"ONEWEB-0281","OBJECT_ID":"2021-060AJ","EPOCH":"2026-04-10T10:17:50.694144","MEAN_MOTION":13.16593477,"ECCENTRICITY":0.0001814,"INCLINATION":87.9054,"RA_OF_ASC_NODE":242.2329,"ARG_OF_PERICENTER":104.8956,"MEAN_ANOMALY":255.2376,"EPHEMERIS_TYPE":0,"CLASSIFICATION_TYPE":"U","NORAD_CAT_ID":48999,"ELEMENT_SET_NO":999,"REV_AT_EPOCH":23071,"BSTAR":7.335000000000001e-05,"MEAN_MOTION_DOT":4.1e-07,"MEAN_MOTION_DDOT":0.0},{"OBJECT_NAME":"ONEWEB-0282","OBJECT_ID":"2021-060AK","EPOCH":"2026-04-10T09:11:43.335744","MEAN_MOTION":13.16593278,"ECCENTRICITY":0.0001882,"INCLINATION":87.9053,"RA_OF_ASC_NODE":242.2526,"ARG_OF_PERICENTER":95.911,"MEAN_ANOMALY":264.2236,"EPHEMERIS_TYPE":0,"CLASSIFICATION_TYPE":"U","NORAD_CAT_ID":49000,"ELEMENT_SET_NO":999,"REV_AT_EPOCH":23068,"BSTAR":0.00027783,"MEAN_MOTION_DOT":1.19e-06,"MEAN_MOTION_DDOT":0.0},{"OBJECT_NAME":"ONEWEB-0283","OBJECT_ID":"2021-060AL","EPOCH":"2026-04-10T08:55:45.920928","MEAN_MOTION":13.16593277,"ECCENTRICITY":0.0001966,"INCLINATION":87.9052,"RA_OF_ASC_NODE":242.2545,"ARG_OF_PERICENTER":99.7481,"MEAN_ANOMALY":260.3872,"EPHEMERIS_TYPE":0,"CLASSIFICATION_TYPE":"U","NORAD_CAT_ID":49001,"ELEMENT_SET_NO":999,"REV_AT_EPOCH":23069,"BSTAR":0.0001809,"MEAN_MOTION_DOT":8.2e-07,"MEAN_MOTION_DDOT":0.0},{"OBJECT_NAME":"ONEWEB-0284","OBJECT_ID":"2021-060AM","EPOCH":"2026-04-10T10:36:05.292288","MEAN_MOTION":13.16593653,"ECCENTRICITY":0.0001622,"INCLINATION":87.9052,"RA_OF_ASC_NODE":242.2324,"ARG_OF_PERICENTER":90.1863,"MEAN_ANOMALY":269.9454,"EPHEMERIS_TYPE":0,"CLASSIFICATION_TYPE":"U","NORAD_CAT_ID":49002,"ELEMENT_SET_NO":999,"REV_AT_EPOCH":23068,"BSTAR":0.00016605,"MEAN_MOTION_DOT":7.6e-07,"MEAN_MOTION_DDOT":0.0},{"OBJECT_NAME":"ONEWEB-0285","OBJECT_ID":"2021-075A","EPOCH":"2026-04-10T10:30:33.821280","MEAN_MOTION":13.12440075,"ECCENTRICITY":0.0001844,"INCLINATION":87.9011,"RA_OF_ASC_NODE":4.1173,"ARG_OF_PERICENTER":77.0222,"MEAN_ANOMALY":283.1113,"EPHEMERIS_TYPE":0,"CLASSIFICATION_TYPE":"U","NORAD_CAT_ID":49075,"ELEMENT_SET_NO":999,"REV_AT_EPOCH":22632,"BSTAR":-0.00057294,"MEAN_MOTION_DOT":-1.93e-06,"MEAN_MOTION_DDOT":0.0},{"OBJECT_NAME":"ONEWEB-0286","OBJECT_ID":"2021-075B","EPOCH":"2026-04-10T04:35:25.004832","MEAN_MOTION":13.12441155,"ECCENTRICITY":0.00016,"INCLINATION":87.9005,"RA_OF_ASC_NODE":4.1898,"ARG_OF_PERICENTER":82.2252,"MEAN_ANOMALY":277.9058,"EPHEMERIS_TYPE":0,"CLASSIFICATION_TYPE":"U","NORAD_CAT_ID":49076,"ELEMENT_SET_NO":999,"REV_AT_EPOCH":22564,"BSTAR":0.0010485,"MEAN_MOTION_DOT":3.9e-06,"MEAN_MOTION_DDOT":0.0},{"OBJECT_NAME":"ONEWEB-0287","OBJECT_ID":"2021-075C","EPOCH":"2026-04-10T12:10:49.797984","MEAN_MOTION":13.17650917,"ECCENTRICITY":0.0001399,"INCLINATION":87.9185,"RA_OF_ASC_NODE":19.3087,"ARG_OF_PERICENTER":80.7199,"MEAN_ANOMALY":279.4091,"EPHEMERIS_TYPE":0,"CLASSIFICATION_TYPE":"U","NORAD_CAT_ID":49077,"ELEMENT_SET_NO":999,"REV_AT_EPOCH":22471,"BSTAR":0.0001206,"MEAN_MOTION_DOT":6e-07,"MEAN_MOTION_DDOT":0.0},{"OBJECT_NAME":"ONEWEB-0288","OBJECT_ID":"2021-075D","EPOCH":"2026-04-10T11:20:36.615264","MEAN_MOTION":13.12445249,"ECCENTRICITY":0.00016,"INCLINATION":87.901,"RA_OF_ASC_NODE":4.1043,"ARG_OF_PERICENTER":75.8508,"MEAN_ANOMALY":284.2798,"EPHEMERIS_TYPE":0,"CLASSIFICATION_TYPE":"U","NORAD_CAT_ID":49078,"ELEMENT_SET_NO":999,"REV_AT_EPOCH":22630,"BSTAR":0.00051669,"MEAN_MOTION_DOT":1.99e-06,"MEAN_MOTION_DDOT":0.0},{"OBJECT_NAME":"ONEWEB-0289","OBJECT_ID":"2021-075E","EPOCH":"2026-04-10T11:17:10.391424","MEAN_MOTION":13.17651299,"ECCENTRICITY":0.0001985,"INCLINATION":87.9192,"RA_OF_ASC_NODE":19.3299,"ARG_OF_PERICENTER":67.0536,"MEAN_ANOMALY":293.0805,"EPHEMERIS_TYPE":0,"CLASSIFICATION_TYPE":"U","NORAD_CAT_ID":49079,"ELEMENT_SET_NO":999,"REV_AT_EPOCH":22528,"BSTAR":0.00010997,"MEAN_MOTION_DOT":5.6e-07,"MEAN_MOTION_DDOT":0.0},{"OBJECT_NAME":"ONEWEB-0290","OBJECT_ID":"2021-075F","EPOCH":"2026-04-10T12:27:49.786272","MEAN_MOTION":13.17649993,"ECCENTRICITY":0.0002226,"INCLINATION":87.919,"RA_OF_ASC_NODE":19.2897,"ARG_OF_PERICENTER":67.0104,"MEAN_ANOMALY":293.1262,"EPHEMERIS_TYPE":0,"CLASSIFICATION_TYPE":"U","NORAD_CAT_ID":49080,"ELEMENT_SET_NO":999,"REV_AT_EPOCH":22470,"BSTAR":-0.00067165,"MEAN_MOTION_DOT":-2.48e-06,"MEAN_MOTION_DDOT":0.0}]