ONEWEB-0275             
1 48993U 21060AC  26100.44014117  .00000013  00000+0  14046-5 0  9996
2 48993  87.9054 242.2350 0001901 100.4201 259.7145 13.16593578230641
ONEWEB-0276             
1 48994U 21060AD  26100.39738353  .00000087  00000+0  19393-3 0  9995
2 48994  87.9057 242.2444 0001876 105.5217 254.6121 13.16592531230650
ONEWEB-0277             
1 48995U 21060AE  26100.41005888  .00000030  00000+0  44244-4 0  9991
2 48995  87.9046 242.2539 0001929  97.4933 262.6417 13.16593678230646
ONEWEB-0278             
1 48996U 21060AF  26100.32455284  .00000044  00000+0  81847-4 0  9996
2 48996  87.9055 242.2563 0001578  97.9793 262.1517 13.16593165230763
ONEWEB-0279             
1 48997U 21060AG  26100.33248317  .00000008  00000+0 -12948-4 0  9992
2 48997  87.9056 242.2536 0002071 100.8999 259.2365 13.16594322230692
ONEWEB-0280             
1 48998U 21060AH  26100.34750308 -.00000270  00000+0 -74087-3 0  9995
2 48998  87.9055 242.2550 0001800  88.7599 271.3738 13.16594377230630
ONEWEB-0281             
1 48999U 21060AJ  26100.42905896  .00000041  00000+0  73350-4 0  9996
2 48999  87.9054 242.2329 0001814 104.8956 255.2376 13.16593477230714
ONEWEB-0282             
1 49000U 21060AK  26100.38314046  .00000119  00000+0  27783-3 0  9990
2 49000  87.9053 242.2526 0001882  95.9110 264.2236 13.16593278230683
ONEWEB-0283             
1 49001U 21060AL  26100.37205927  .00000082  00000+0  18090-3 0  9997
2 49001  87.9052 242.2545 0001966  99.7481 260.3872 13.16593277230693
ONEWEB-0284             
1 49002U 21060AM  26100.44172792  .00000076  00000+0  16605-3 0  9992
2 49002  87.9052 242.2324 0001622  90.1863 269.9454 13.16593653230685
ONEWEB-0285             
1 49075U 21075A   26100.43789145 -.00000193  00000+0 -57294-3 0  9994
2 49075  87.9011   4.1173 0001844  77.0222 283.1113 13.12440075226327
ONEWEB-0286             
1 49076U 21075B   26100.19126163  .00000390  00000+0  10485-2 0  9990
2 49076  87.9005   4.1898 0001600  82.2252 277.9058 13.12441155225649
ONEWEB-0287             
1 49077U 21075C   26100.50752081  .00000060  00000+0  12060-3 0  9996
2 49077  87.9185  19.3087 0001399  80.7199 279.4091 13.17650917224719
ONEWEB-0288             
1 49078U 21075D   26100.47264601  .00000199  00000+0  51669-3 0  9990
2 49078  87.9010   4.1043 0001600  75.8508 284.2798 13.12445249226305
ONEWEB-0289             
1 49079U 21075E   26100.47025916  .00000056  00000+0  10997-3 0  9996
2 49079  87.9192  19.3299 0001985  67.0536 293.0805 13.17651299225280
ONEWEB-0290             
1 49080U 21075F   26100.51932623 -.00000248  00000+0 -67165-3 0  9999
2 49080  87.9190  19.2897 0002226  67.0104 293.1262 13.17649993224705
